LEMUR-2-ARIANNA         
1 62699U 25009CU  26162.49674102  .00007565  00000+0  57548-3 0  9992
2 62699  97.6893 243.9254 0003571 132.7737 227.3789 15.02400326 76702
LEMUR-2-ALISIA          
1 62706U 25009DB  26162.47573206  .00006226  00000+0  47098-3 0  9994
2 62706  97.6968 244.6844 0001332 189.2646 170.8555 15.02687690 99301
LEMUR-2-ROUNDTRIPPER    
1 62711U 25009DG  26162.50422235  .00008227  00000+0  60432-3 0  9999
2 62711  97.7253 245.1912 0004720 149.4647 210.6854 15.03695628 76772
LEMUR-2-MYNAMEISJEFF    
1 62712U 25009DH  26162.50266661  .00008029  00000+0  58980-3 0  9994
2 62712  97.7302 245.5674 0002925 173.3736 186.7529 15.03709117 76778
LEMUR-2-LEIA-PHILIP     
1 63246U 25052AN  26162.58981476  .00001828  00000+0  16264-3 0  9990
2 63246  97.6848  54.6348 0002090 230.4916 129.6122 14.97304356 67830
LEMUR-2-LIA-MARTIN      
1 63248U 25052AQ  26162.59663078  .00004309  00000+0  37208-3 0  9996
2 63248  97.6917  55.1082 0002580 163.4849 196.6458 14.97761217 67844
LEMUR-2-DELOITTE-1      
1 63259U 25052BB  26162.23817885  .00003214  00000+0  28026-3 0  9998
2 63259  97.6926  55.0838 0002882 109.3580 250.7954 14.97555570 67802
LEMUR-2-EMERSONROSE     
1 63261U 25052BD  26162.61972352  .00003239  00000+0  27190-3 0  9992
2 63261  97.6903  56.0083 0002118  67.2257 292.9189 14.99042082 67908
LEMUR-2-MARACHE-FRAN    
1 63262U 25052BE  26162.59881475  .00005337  00000+0  43318-3 0  9996
2 63262  97.6956  56.2915 0005961  41.7198 318.4479 15.00044039 67928
LEMUR-2-THEFALCONER     
1 63264U 25052BG  26162.59786180  .00003267  00000+0  28631-3 0  9996
2 63264  97.6885  55.0649 0003352  51.4597 308.6925 14.97355893 67852
LEMUR-2-UNTITLED-SC     
1 63351U 25061A   26162.40274402  .00003231  00000+0  18398-3 0  9992
2 63351  97.5631 137.8067 0017020 286.8532  73.0832 15.13430906 66712
LEMUR-2-ESPERANZA       
1 63352U 25061B   26162.44634697  .00002480  00000+0  14178-3 0  9990
2 63352  97.5635 137.9421 0016533 286.0014  73.9396 15.13524599 66724
LEMUR-2-KREMPEL-BRO2    
1 63353U 25061C   26162.54107075  .00003848  00000+0  21515-3 0  9999
2 63353  97.5684 138.5623 0017477 277.1532  82.7712 15.13962154 66750
LEMUR-2-THERMORAPTOR    
1 63354U 25061D   26162.45734123  .00002970  00000+0  16660-3 0  9990
2 63354  97.5688 138.5536 0017109 276.3614  83.5669 15.14039692 66744
LEMUR-2-NEUROSPICY      
1 63355U 25061E   26162.16510867  .00003121  00000+0  17447-3 0  9999
2 63355  97.5614 137.8938 0015036 281.7235  78.2310 15.14151039 66708
LEMUR-2-TILLINFINITY    
1 63356U 25061F   26162.20269693  .00003319  00000+0  18219-3 0  9990
2 63356  97.5602 138.2177 0016214 268.1914  91.7461 15.14738767 66737
LEMUR-2-KREMPEL-BRO1    
1 63357U 25061G   26162.24146707  .00002810  00000+0  15562-3 0  9998
2 63357  97.5601 138.1738 0016842 269.3774  90.5528 15.14543691 66734
LEMUR-2-LANGER2SPACE    
1 63358U 25061H   26162.20070548  .00003364  00000+0  18728-3 0  9996
2 63358  97.5607 137.9499 0014908 279.7998  80.1550 15.14241263 66714
LEMUR-2-BALTO           
1 63395U 25052BH  26162.51672553  .00005466  00000+0  44372-3 0  9994
2 63395  97.6893  56.1925 0006795  72.0743 288.1221 15.00024334 67917
LEMUR-2-KRISH           
1 64561U 25135AK  26162.25593788  .00004237  00000+0  38142-3 0  9998
2 64561  97.7727 277.1737 0001470 107.2070 252.9312 14.96147894 53034
LEMUR-2-HUBBLE-4        
1 64565U 25135AP  26162.23930765  .00001049  00000+0  10592-3 0  9997
2 64565  97.7693 276.2178 0001360 344.2917  15.8260 14.93179582 52987
LEMUR-2-SEJONG-2        
1 64586U 25135BL  26162.55530579  .00003282  00000+0  29278-3 0  9996
2 64586  97.7686 277.6155 0004284   5.3611 354.7655 14.96656006 53108
LEMUR-2-HUBBLE-5        
1 64840U 25135BT  26162.59893900  .00001780  00000+0  17182-3 0  9995
2 64840  97.7712 277.1977 0005519  13.3853 346.7512 14.94119468 53070
LEMUR-2-KARENDARRELL    
1 64841U 25135BU  26162.58166243  .00007147  00000+0  57839-3 0  9994
2 64841  97.7670 278.7999 0009309 223.7742 136.2744 15.00029122 53175
LEMUR-2-LUCILLE-ROSE    
1 65403U 25135BV  26162.55556558  .00006436  00000+0  52049-3 0  9996
2 65403  97.7768 278.7865 0010792 304.7867  55.2340 15.00083531 47793
LEMUR-2-AFFIE-WAUWIE    
1 66295U 25248C   26161.25212135  .00012829  00000+0  48614-3 0  9993
2 66295  45.3855 152.5549 0008368  38.3394 321.8088 15.26939127 33535
LEMUR-2-DEANANDMAEVE    
1 66678U 25276N   26162.45452475  .00005230  00000+0  24827-3 0  9993
2 66678  97.4215 236.0253 0006268  33.6729 326.4903 15.19660891 29549
LEMUR-2-STAS-GORBUK     
1 66686U 25276W   26162.53358089  .00005345  00000+0  25618-3 0  9993
2 66686  97.4252 236.1583 0005682  34.0932 326.0667 15.19321131 29551
LEMUR-2-TEODOR          
1 66768U 25276DG  26162.19460948  .00004592  00000+0  21029-3 0  9999
2 66768  97.4155 236.0540 0001981 121.7448 238.3981 15.20983999 29530
