OBJECT_NAME,OBJECT_ID,EPOCH,MEAN_MOTION,ECCENTRICITY,INCLINATION,RA_OF_ASC_NODE,ARG_OF_PERICENTER,MEAN_ANOMALY,EPHEMERIS_TYPE,CLASSIFICATION_TYPE,NORAD_CAT_ID,ELEMENT_SET_NO,REV_AT_EPOCH,BSTAR,MEAN_MOTION_DOT,MEAN_MOTION_DDOT
LEMUR-2-ARIANNA,2025-009CU,2026-06-11T11:55:18.424128,15.02400326,.00035711,97.6893,243.9254,132.7737,227.3789,0,U,62699,999,7670,.57547842E-3,.7565E-4,0
LEMUR-2-ALISIA,2025-009DB,2026-06-11T11:25:03.249984,15.02687690,.00013323,97.6968,244.6844,189.2646,170.8555,0,U,62706,999,9930,.47097757E-3,.6226E-4,0
LEMUR-2-ROUNDTRIPPER,2025-009DG,2026-06-11T12:06:04.811040,15.03695628,.00047208,97.7253,245.1912,149.4647,210.6854,0,U,62711,999,7677,.60432137E-3,.8227E-4,0
LEMUR-2-MYNAMEISJEFF,2025-009DH,2026-06-11T12:03:50.395104,15.03709117,.00029252,97.7302,245.5674,173.3736,186.7529,0,U,62712,999,7677,.58979702E-3,.8029E-4,0
LEMUR-2-LEIA-PHILIP,2025-052AN,2026-06-11T14:09:19.995264,14.97304356,.00020902,97.6848,54.6348,230.4916,129.6122,0,U,63246,999,6783,.16264407E-3,.1828E-4,0
LEMUR-2-LIA-MARTIN,2025-052AQ,2026-06-11T14:19:08.899392,14.97761217,.00025805,97.6917,55.1082,163.4849,196.6458,0,U,63248,999,6784,.37207907E-3,.4309E-4,0
LEMUR-2-DELOITTE-1,2025-052BB,2026-06-11T05:42:58.652640,14.97555570,.00028823,97.6926,55.0838,109.3580,250.7954,0,U,63259,999,6780,.28026219E-3,.3214E-4,0
LEMUR-2-EMERSONROSE,2025-052BD,2026-06-11T14:52:24.112128,14.99042082,.00021185,97.6903,56.0083,67.2257,292.9189,0,U,63261,999,6790,.27189973E-3,.3239E-4,0
LEMUR-2-MARACHE-FRAN,2025-052BE,2026-06-11T14:22:17.594400,15.00044039,.00059615,97.6956,56.2915,41.7198,318.4479,0,U,63262,999,6792,.43317856E-3,.5337E-4,0
LEMUR-2-THEFALCONER,2025-052BG,2026-06-11T14:20:55.259520,14.97355893,.00033522,97.6885,55.0649,51.4597,308.6925,0,U,63264,999,6785,.28631291E-3,.3267E-4,0
LEMUR-2-UNTITLED-SC,2025-061A,2026-06-11T09:39:57.083328,15.13430906,.00170205,97.5631,137.8067,286.8532,73.0832,0,U,63351,999,6671,.18398396E-3,.3231E-4,0
LEMUR-2-ESPERANZA,2025-061B,2026-06-11T10:42:44.378208,15.13524599,.00165337,97.5635,137.9421,286.0014,73.9396,0,U,63352,999,6672,.14178273E-3,.248E-4,0
LEMUR-2-KREMPEL-BRO2,2025-061C,2026-06-11T12:59:08.512800,15.13962154,.00174775,97.5684,138.5623,277.1532,82.7712,0,U,63353,999,6675,.21514862E-3,.3848E-4,0
LEMUR-2-THERMORAPTOR,2025-061D,2026-06-11T10:58:34.282272,15.14039692,.00171096,97.5688,138.5536,276.3614,83.5669,0,U,63354,999,6674,.16659698E-3,.297E-4,0
LEMUR-2-NEUROSPICY,2025-061E,2026-06-11T03:57:45.389088,15.14151039,.0015036,97.5614,137.8938,281.7235,78.2310,0,U,63355,999,6670,.17446664E-3,.3121E-4,0
LEMUR-2-TILLINFINITY,2025-061F,2026-06-11T04:51:53.014752,15.14738767,.00162147,97.5602,138.2177,268.1914,91.7461,0,U,63356,999,6673,.18219475E-3,.3319E-4,0
LEMUR-2-KREMPEL-BRO1,2025-061G,2026-06-11T05:47:42.754848,15.14543691,.00168429,97.5601,138.1738,269.3774,90.5528,0,U,63357,999,6673,.15561834E-3,.281E-4,0
LEMUR-2-LANGER2SPACE,2025-061H,2026-06-11T04:49:00.953472,15.14241263,.00149082,97.5607,137.9499,279.7998,80.1550,0,U,63358,999,6671,.1872774E-3,.3364E-4,0
LEMUR-2-BALTO,2025-052BH,2026-06-11T12:24:05.085792,15.00024334,.00067954,97.6893,56.1925,72.0743,288.1221,0,U,63395,999,6791,.44372495E-3,.5466E-4,0
LEMUR-2-KRISH,2025-135AK,2026-06-11T06:08:33.032832,14.96147894,.000147,97.7727,277.1737,107.2070,252.9312,0,U,64561,999,5303,.38142199E-3,.4237E-4,0
LEMUR-2-HUBBLE-4,2025-135AP,2026-06-11T05:44:36.180960,14.93179582,.00013606,97.7693,276.2178,344.2917,15.8260,0,U,64565,999,5298,.1059237E-3,.1049E-4,0
LEMUR-2-SEJONG-2,2025-135BL,2026-06-11T13:19:38.420256,14.96656006,.00042842,97.7686,277.6155,5.3611,354.7655,0,U,64586,999,5310,.29278267E-3,.3282E-4,0
LEMUR-2-HUBBLE-5,2025-135BT,2026-06-11T14:22:28.329600,14.94119468,.00055195,97.7712,277.1977,13.3853,346.7512,0,U,64840,999,5307,.17182026E-3,.178E-4,0
LEMUR-2-KARENDARRELL,2025-135BU,2026-06-11T13:57:35.633952,15.00029122,.00093096,97.7670,278.7999,223.7742,136.2744,0,U,64841,999,5317,.57838833E-3,.7147E-4,0
LEMUR-2-LUCILLE-ROSE,2025-135BV,2026-06-11T13:20:00.866112,15.00083531,.00107929,97.7768,278.7865,304.7867,55.2340,0,U,65403,999,4779,.52048945E-3,.6436E-4,0
LEMUR-2-AFFIE-WAUWIE,2025-248C,2026-06-10T06:03:03.284640,15.26939127,.0008368,45.3855,152.5549,38.3394,321.8088,0,U,66295,999,3353,.48614E-3,.12829E-3,0
LEMUR-2-DEANANDMAEVE,2025-276N,2026-06-11T10:54:30.938400,15.19660891,.00062681,97.4215,236.0253,33.6729,326.4903,0,U,66678,999,2954,.24826657E-3,.523E-4,0
LEMUR-2-STAS-GORBUK,2025-276W,2026-06-11T12:48:21.388896,15.19321131,.00056825,97.4252,236.1583,34.0932,326.0667,0,U,66686,999,2955,.25618295E-3,.5345E-4,0
LEMUR-2-TEODOR,2025-276DG,2026-06-11T04:40:14.259072,15.20983999,.00019819,97.4155,236.0540,121.7448,238.3981,0,U,66768,999,2953,.2102872E-3,.4592E-4,0
